NORAD_CAT_ID,OBJECT_NAME,OBJECT_TYPE,EPOCH,MEAN_MOTION,ECCENTRICITY,INCLINATION,RA_OF_ASC_NODE,ARG_OF_PERICENTER,MEAN_ANOMALY,BSTAR,MEAN_MOTION_DOT,MEAN_MOTION_DDOT,TLE_LINE0,TLE_LINE1,TLE_LINE2,SEMIMAJOR_AXIS,PERIOD,APOGEE,PERIGEE,DECAYED
55418.0,STARLINK-5030,PAYLOAD,2024-07-02 10:35:19,14.98332797,0.000354,69.9977,195.7258,266.7809,93.2945,1.5383e-05,9e-07,0.0,0 STARLINK-5030,1 55418U 23014AD  24184.44119912  .00000090  00000-0  15383-4 0  9996,2 55418  69.9977 195.7258 0003540 266.7809  93.2945 14.98332797 78469,6950.184,96.107,574.51,569.589,0.0
55418.0,STARLINK-5030,PAYLOAD,2024-07-02 18:36:00,14.98326662,0.0003348,69.9982,194.8844,269.8781,90.1995,-5.3663e-05,-7.33e-06,0.0,0 STARLINK-5030,1 55418U 23014AD  24184.77500488 -.00000733  00000-0 -53663-4 0  9993,2 55418  69.9982 194.8844 0003348 269.8781  90.1995 14.98326662 78516,6950.203,96.107,574.395,569.741,0.0
55418.0,STARLINK-5030,PAYLOAD,2024-07-03 10:37:21,14.98322697,0.0003379,69.9982,193.2011,267.7016,92.3756,-9.3412e-05,-1.207e-05,0.0,0 STARLINK-5030,1 55418U 23014AD  24185.44261025 -.00001207  00000-0 -93412-4 0  9992,2 55418  69.9982 193.2011 0003379 267.7016  92.3756 14.98322697 79555,6950.215,96.107,574.429,569.732,0.0
55418.0,STARLINK-5030,PAYLOAD,2024-07-04 04:14:49,14.98338348,0.000331,69.9983,191.3495,266.9786,93.0994,-0.00029693,-3.635e-05,0.0,0 STARLINK-5030,1 55418U 23014AD  24186.17696518 -.00003635  00000-0 -29693-3 0  9998,2 55418  69.9983 191.3495 0003310 266.9786  93.0994 14.98338348 78721,6950.167,96.106,574.333,569.732,0.0
55418.0,STARLINK-5030,PAYLOAD,2024-07-04 10:39:22,14.98326047,0.0003103,69.9985,190.6763,265.3875,94.693,-8.369e-05,-1.091e-05,0.0,0 STARLINK-5030,1 55418U 23014AD  24186.44400780 -.00001091  00000-0 -83690-4 0  9994,2 55418  69.9985 190.6763 0003103 265.3875  94.6930 14.98326047 79704,6950.205,96.107,574.227,569.913,0.0
55418.0,STARLINK-5030,PAYLOAD,2024-07-04 17:03:54,14.98320617,0.0003306,69.9986,190.0031,267.9024,92.1756,5.3715e-05,5.48e-06,0.0,0 STARLINK-5030,1 55418U 23014AD  24186.71104920  .00000548  00000-0  53715-4 0  9990,2 55418  69.9986 190.0031 0003306 267.9024  92.1756 14.98320617 78802,6950.222,96.108,574.385,569.789,0.0
55418.0,STARLINK-5030,PAYLOAD,2024-07-04 23:28:26,14.98319794,0.0003339,69.9985,189.3297,268.0304,92.0472,0.00010345,1.141e-05,0.0,0 STARLINK-5030,1 55418U 23014AD  24186.97809011  .00001141  00000-0  10345-3 0  9992,2 55418  69.9985 189.3297 0003339 268.0304  92.0472 14.98319794 79781,6950.224,96.108,574.41,569.769,0.0
55418.0,STARLINK-5030,PAYLOAD,2024-07-05 10:41:23,14.98322532,0.0003327,69.9986,188.1514,268.1025,91.9753,0.00011753,1.309e-05,0.0,0 STARLINK-5030,1 55418U 23014AD  24187.44541095  .00001309  00000-0  11753-3 0  9990,2 55418  69.9986 188.1514 0003327 268.1025  91.9753 14.98322532 79851,6950.216,96.107,574.393,569.769,0.0
55418.0,STARLINK-5030,PAYLOAD,2024-07-05 17:05:55,14.98325691,0.0003336,69.9986,187.4782,267.8379,92.2399,0.0001164,1.296e-05,0.0,0 STARLINK-5030,1 55418U 23014AD  24187.71245004  .00001296  00000-0  11640-3 0  9991,2 55418  69.9986 187.4782 0003336 267.8379  92.2399 14.98325691 78957,6950.206,96.107,574.39,569.753,0.0
55418.0,STARLINK-5030,PAYLOAD,2024-07-06 10:43:24,14.98330762,0.0003339,69.9987,185.6267,266.9533,93.1244,0.00011857,1.322e-05,0.0,0 STARLINK-5030,1 55418U 23014AD  24188.44680798  .00001322  00000-0  11857-3 0  9995,2 55418  69.9987 185.6267 0003339 266.9533  93.1244 14.98330762 80004,6950.191,96.107,574.376,569.735,0.0
55418.0,STARLINK-5030,PAYLOAD,2024-07-06 17:07:56,14.98329621,0.0003338,69.9987,184.9534,267.3667,92.711,8.4511e-05,9.15e-06,0.0,0 STARLINK-5030,1 55418U 23014AD  24188.71384914  .00000915  00000-0  84511-4 0  9991,2 55418  69.9987 184.9534 0003338 267.3667  92.7110 14.98329621 79103,6950.194,96.107,574.379,569.739,0.0
55418.0,STARLINK-5030,PAYLOAD,2024-07-07 09:09:17,14.98331348,0.0003295,69.9987,183.2701,267.2514,92.8268,5.4128e-05,5.53e-06,0.0,0 STARLINK-5030,1 55418U 23014AD  24189.38144883  .00000553  00000-0  54128-4 0  9993,2 55418  69.9987 183.2701 0003295 267.2514  92.8268 14.98331348 80143,6950.189,96.107,574.344,569.764,0.0
55418.0,STARLINK-5030,PAYLOAD,2024-07-08 01:10:37,14.98335025,0.0003279,69.9988,181.5869,266.9915,93.0869,3.1392e-05,2.82e-06,0.0,0 STARLINK-5030,1 55418U 23014AD  24190.04904594  .00000282  00000-0  31392-4 0  9998,2 55418  69.9988 181.5869 0003279 266.9915  93.0869 14.98335025 79305,6950.177,96.107,574.321,569.763,0.0
55418.0,STARLINK-5030,PAYLOAD,2024-07-08 09:11:17,14.98335882,0.0003265,69.9988,180.7454,267.0938,92.9848,4.7972e-05,4.79e-06,0.0,0 STARLINK-5030,1 55418U 23014AD  24190.38284361  .00000479  00000-0  47972-4 0  9997,2 55418  69.9988 180.7454 0003265 267.0938  92.9848 14.98335882 80294,6950.175,96.107,574.309,569.77,0.0
55418.0,STARLINK-5030,PAYLOAD,2024-07-08 17:11:58,14.98333038,0.0003283,69.9988,179.9033,267.3561,92.7222,1.0185e-05,2.8e-07,0.0,0 STARLINK-5030,1 55418U 23014AD  24190.71664537  .00000028  00000-0  10185-4 0  9997,2 55418  69.9988 179.9033 0003283 267.3561  92.7222 14.98333038 80343,6950.183,96.107,574.33,569.767,0.0
55418.0,STARLINK-5030,PAYLOAD,2024-07-09 04:24:54,14.98329629,0.0003274,69.9987,178.7252,267.084,92.9944,2.964e-06,-5.8e-07,0.0,0 STARLINK-5030,1 55418U 23014AD  24191.18396724 -.00000058  00000-0  29640-5 0  9990,2 55418  69.9987 178.7252 0003274 267.0840  92.9944 14.98329629 79475,6950.194,96.107,574.335,569.784,0.0
55418.0,STARLINK-5030,PAYLOAD,2024-07-09 09:13:18,14.983316,0.0003275,69.9987,178.2206,267.5396,92.5388,1.2283e-05,5.4e-07,0.0,0 STARLINK-5030,1 55418U 23014AD  24191.38424558  .00000054  00000-0  12283-4 0  9998,2 55418  69.9987 178.2206 0003275 267.5396  92.5388 14.98331600 80440,6950.188,96.107,574.329,569.777,0.0
55418.0,STARLINK-5030,PAYLOAD,2024-07-10 04:26:55,14.98329719,0.000324,69.9988,176.2007,267.6414,92.4374,-3.1128e-05,-4.64e-06,0.0,0 STARLINK-5030,1 55418U 23014AD  24192.18536774 -.00000464  00000-0 -31128-4 0  9997,2 55418  69.9988 176.2007 0003240 267.6414  92.4374 14.98329719 79622,6950.194,96.107,574.311,569.807,0.0
55418.0,STARLINK-5030,PAYLOAD,2024-07-10 09:15:19,14.98331684,0.0003241,69.9988,175.6958,267.8221,92.2567,-9.0616e-06,-2.01e-06,0.0,0 STARLINK-5030,1 55418U 23014AD  24192.38564580 -.00000201  00000-0 -90616-5 0  9992,2 55418  69.9988 175.6958 0003241 267.8221  92.2567 14.98331684 80593,6950.188,96.107,574.305,569.8,0.0
55418.0,STARLINK-5030,PAYLOAD,2024-07-10 22:04:23,14.98332491,0.0003247,69.9988,174.3491,268.6986,91.3801,8.1272e-05,8.77e-06,0.0,0 STARLINK-5030,1 55418U 23014AD  24192.91972213  .00000877  00000-0  81272-4 0  9991,2 55418  69.9988 174.3491 0003247 268.6986  91.3801 14.98332491 80671,6950.185,96.107,574.307,569.793,0.0
55418.0,STARLINK-5030,PAYLOAD,2024-07-11 04:28:56,14.98334029,0.0003241,69.9988,173.6759,268.6711,91.4077,9.215e-05,1.007e-05,0.0,0 STARLINK-5030,1 55418U 23014AD  24193.18676058  .00001007  00000-0  92150-4 0  9992,2 55418  69.9988 173.6759 0003241 268.6711  91.4077 14.98334029 79774,6950.18,96.107,574.298,569.793,0.0
55418.0,STARLINK-5030,PAYLOAD,2024-07-11 09:17:20,14.98336932,0.0003226,69.9989,173.171,268.5188,91.5602,0.00011192,1.243e-05,0.0,0 STARLINK-5030,1 55418U 23014AD  24193.38703763  .00001243  00000-0  11192-3 0  9996,2 55418  69.9989 173.1710 0003226 268.5188  91.5602 14.98336932 80746,6950.171,96.107,574.279,569.794,0.0
55418.0,STARLINK-5030,PAYLOAD,2024-07-12 04:30:57,14.98328204,0.0003178,69.999,171.1512,268.5582,91.5213,2.3079e-05,1.82e-06,0.0,0 STARLINK-5030,1 55418U 23014AD  24194.18816529  .00000182  00000-0  23079-4 0  9999,2 55418  69.9990 171.1512 0003178 268.5582  91.5213 14.98328204 79929,6950.198,96.107,574.272,569.855,0.0
55418.0,STARLINK-5030,PAYLOAD,2024-07-12 07:43:13,14.98329765,0.0003164,69.999,170.8145,269.3319,90.7477,3.9813e-05,3.82e-06,0.0,0 STARLINK-5030,1 55418U 23014AD  24194.32168396  .00000382  00000-0  39813-4 0  9992,2 55418  69.9990 170.8145 0003164 269.3319  90.7477 14.98329765 80882,6950.194,96.107,574.258,569.86,0.0
55418.0,STARLINK-5030,PAYLOAD,2024-07-12 22:08:25,14.98333989,0.0003068,69.9993,169.2997,268.5174,91.5634,-1.6841e-05,-2.94e-06,0.0,0 STARLINK-5030,1 55418U 23014AD  24194.92252244 -.00000294  00000-0 -16841-4 0  9994,2 55418  69.9993 169.2997 0003068 268.5174  91.5634 14.98333989 80972,6950.181,96.107,574.178,569.913,0.0
55418.0,STARLINK-5030,PAYLOAD,2024-07-13 04:32:58,14.98335139,0.0003062,69.9994,168.6266,268.1386,91.9422,4.6613e-06,-3.7e-07,0.0,0 STARLINK-5030,1 55418U 23014AD  24195.18956042 -.00000037  00000-0  46613-5 0  9995,2 55418  69.9994 168.6266 0003062 268.1386  91.9422 14.98335139 80079,6950.177,96.107,574.17,569.914,0.0
55418.0,STARLINK-5030,PAYLOAD,2024-07-13 07:45:14,14.98334923,0.0003066,69.9994,168.29,268.1137,91.9671,2.5734e-06,-6.2e-07,0.0,0 STARLINK-5030,1 55418U 23014AD  24195.32308022 -.00000062  00000-0  25734-5 0  9999,2 55418  69.9994 168.2900 0003066 268.1137  91.9671 14.98334923 81031,6950.178,96.107,574.174,569.912,0.0
55418.0,STARLINK-5030,PAYLOAD,2024-07-13 22:10:27,14.98327193,0.00031,69.9993,166.7752,268.6145,91.4659,2.7491e-05,2.35e-06,0.0,0 STARLINK-5030,1 55418U 23014AD  24195.92392422  .00000235  00000-0  27491-4 0  9994,2 55418  69.9993 166.7752 0003100 268.6145  91.4659 14.98327193 81123,6950.202,96.107,574.221,569.912,0.0
55418.0,STARLINK-5030,PAYLOAD,2024-07-14 04:34:59,14.98328571,0.0003116,69.9992,166.1018,268.8622,91.218,3.834e-05,3.64e-06,0.0,0 STARLINK-5030,1 55418U 23014AD  24196.19096346  .00000364  00000-0  38340-4 0  9998,2 55418  69.9992 166.1018 0003116 268.8622  91.2180 14.98328571 80228,6950.197,96.107,574.228,569.897,0.0
55418.0,STARLINK-5030,PAYLOAD,2024-07-14 07:47:15,14.98330595,0.0003076,69.9994,165.7655,268.8925,91.1882,6.266e-05,6.55e-06,0.0,0 STARLINK-5030,1 55418U 23014AD  24196.32448167  .00000655  00000-0  62660-4 0  9990,2 55418  69.9994 165.7655 0003076 268.8925  91.1882 14.98330595 81186,6950.191,96.107,574.194,569.918,0.0
